E-ST@R-II               
1 41459U 16025D   22110.55130805  .00015695  00000+0  69371-3 0  9994
2 41459  98.1805 271.4908 0150163 105.9984 255.7845 15.12140325328743
AAUSAT 4                
1 41460U 16025E   22110.41766260  .00021370  00000+0  85726-3 0  9990
2 41460  98.1754 277.0524 0131568  84.2681 277.3462 15.17304714329133
BEESAT-4                
1 41619U 16040W   22110.37581898  .00013510  00000+0  47677-3 0  9990
2 41619  97.2231 162.6074 0008372 330.5008  29.5759 15.29322282311842
CANX-7                  
1 41788U 16059F   22109.85029961  .06729840  00000+0  33111-1 0  9998
2 41788  98.1943 237.1429 0033462 297.1132 184.6910 15.76952621299749
RAVAN                   
1 41849U 16067B   22110.62932653  .00004272  00000+0  34550-3 0  9992
2 41849  97.9930 245.9783 0015747 163.5862 196.5873 15.00251822297326
CELTEE 1                
1 41850U 16067C   22110.61315332  .00002294  00000+0  19868-3 0  9999
2 41850  97.9873 241.2405 0008752 166.4495 193.6963 14.98150093297092
OPTICUBE 04             
1 41851U 16067D   22110.63613705  .00002221  00000+0  19533-3 0  9996
2 41851  97.9863 240.3863 0009368 164.0840 196.0677 14.97577548297054
AEROCUBE 8D             
1 41852U 16067E   22110.59807247  .00002235  00000+0  19435-3 0  9994
2 41852  97.9863 240.3120 0009372 165.8624 194.2861 14.98012124297033
AEROCUBE 8C             
1 41853U 16067F   22110.57806251  .00003811  00000+0  32784-3 0  9990
2 41853  97.9859 240.1206 0010294 164.0817 196.0730 14.97982403297021
PROMETHEUS 2-1          
1 41854U 16067G   22110.58767580  .00005134  00000+0  42910-3 0  9995
2 41854  97.9889 241.0926 0010181 159.6487 200.5143 14.98932899297071
PROMETHEUS 2-3          
1 41855U 16067H   22110.58124519  .00005888  00000+0  49099-3 0  9996
2 41855  97.9879 241.1581 0010795 159.6754 200.4899 14.98950718297074
INS-1B                  
1 41954U 17008G   22110.12883143  .00014126  00000+0  49084-3 0  9996
2 41954  97.2630 171.2699 0009506  88.4285 271.8045 15.29808095287823
BGUSAT                  
1 41999U 17008BD  22110.47585600  .00031666  00000+0  87133-3 0  9995
2 41999  97.2850 181.2250 0007114  88.0712 272.1347 15.37091644287725
DIDO-2                  
1 42000U 17008BE  22110.47279314  .00008128  00000+0  30313-3 0  9996
2 42000  97.2619 171.2456 0009371 104.5037 255.7243 15.27636036287215
PEASSS                  
1 42015U 17008BV  22110.42252146  .00011346  00000+0  39110-3 0  9991
2 42015  97.2676 174.7107 0007158 102.8921 257.3119 15.30140572287892
AL-FARABI 1             
1 42016U 17008BW  22110.41115469  .00016313  00000+0  52228-3 0  9991
2 42016  97.2739 177.4280 0006731 101.0560 259.1439 15.32444592288157
NAYIF-1 (EO-88)         
1 42017U 17008BX  22110.43068477  .00016287  00000+0  51976-3 0  9999
2 42017  97.2731 177.4550 0006777 100.1456 260.0551 15.32548720288181
UCLSAT                  
1 42765U 17036A   22110.07943830  .00013025  00000+0  47576-3 0  9993
2 42765  97.2043 154.6110 0010714 162.8231 197.3374 15.28178554268933
LITUANICASAT-2          
1 42768U 17036D   22110.08750623  .00026991  00000+0  86175-3 0  9997
2 42768  97.2128 156.8093 0013143 151.8483 208.3472 15.32367930268306
AALTO-1                 
1 42775U 17036L   22110.37067439  .00007229  00000+0  29435-3 0  9992
2 42775  97.2043 150.3013 0013513 164.6156 195.5496 15.24694516267925
URSA MAIOR              
1 42776U 17036M   22110.37097728  .00007785  00000+0  31247-3 0  9998
2 42776  97.2056 150.9755 0013310 163.4932 196.6743 15.25156052267952
COMPASS 2               
1 42777U 17036N   22110.40719816  .00018502  00000+0  63236-3 0  9994
2 42777  97.2112 156.7272 0011662 151.9349 208.2524 15.30264098268264
DIAMOND RED             
1 42783U 17036U   22110.38966712  .00009319  00000+0  36075-3 0  9994
2 42783  97.2062 153.2074 0011491 167.5530 192.5995 15.26332303268089
PEGASUS                 
1 42784U 17036V   22110.36326568  .00010629  00000+0  39737-3 0  9996
2 42784  97.2057 154.2108 0011362 165.1726 194.9849 15.27455213268149
DIAMOND GREEN           
1 42785U 17036W   22110.06077485  .00010128  00000+0  39167-3 0  9996
2 42785  97.2065 152.9516 0011373 169.2474 190.9010 15.26342864268102
DIAMOND BLUE            
1 42786U 17036X   22110.38736747  .00009293  00000+0  35963-3 0  9996
2 42786  97.2064 153.2595 0011384 168.3775 191.7729 15.26346218268157
NUDTSAT                 
1 42787U 17036Y   22110.57852586  .00018677  00000+0  61995-3 0  9998
2 42787  97.2100 158.1187 0010479 153.0491 207.1288 15.31221737268235
SUCHAI                  
1 42788U 17036Z   22110.09306293  .00013829  00000+0  49423-3 0  9991
2 42788  97.2062 155.4347 0010900 161.6572 198.5063 15.28877700268265
SKCUBE                  
1 42789U 17036AA  22110.39171344  .00012522  00000+0  45564-3 0  9993
2 42789  97.2062 155.2513 0010860 161.4190 198.7449 15.28310113268202
VZLUSAT-1               
1 42790U 17036AB  22110.38581829  .00018433  00000+0  61375-3 0  9992
2 42790  97.2088 157.9094 0010218 154.7820 205.3922 15.31126798268352
ROBUSTA-1B              
1 42792U 17036AD  22110.36522799  .00012365  00000+0  44405-3 0  9996
2 42792  97.2059 155.7479 0010480 161.1630 199.0000 15.28750328268249
CICERO 6                
1 42793U 17036AE  22110.08021681  .00008761  00000+0  33954-3 0  9992
2 42793  97.2043 153.4793 0009913 167.0254 193.1241 15.26328779268165
CORVUS BC2              
1 42846U 17042X   22110.50240240  .00001508  00000+0  15108-3 0  9992
2 42846  97.4310 331.0717 0009256 181.6513 178.4678 14.92715617259638
CORVUS BC1              
1 42847U 17042Y   22110.38599606  .00001143  00000+0  11543-3 0  9996
2 42847  97.4312 331.2569 0008945 180.5248 179.5964 14.92818325259624
MIRATA                  
1 43015U 17073C   22110.28530639  .00009487  00000+0  69562-3 0  9991
2 43015  97.6795   7.7636 0242228  12.6818 348.0344 14.83111290238642
MAKERSAT 0              
1 43016U 17073D   22110.45743752  .00008536  00000+0  63644-3 0  9992
2 43016  97.6818   7.6306 0248393  15.9043 344.9793 14.81661473238607
AEROCUBE 7B (OCSD B)    
1 43042U 17071F   22110.33540650  .00090848  00000+0  86477-3 0  9994
2 43042  51.6339 340.9038 0001555 205.8938 154.1980 15.66061349246540
AEROCUBE 7C (OCSD C)    
1 43043U 17071G   22110.24788733  .00084051  00000+0  83538-3 0  9995
2 43043  51.6336 342.5374 0001203 196.0076 164.0881 15.65012533246486
ASGARDIA 1              
1 43049U 17071N   22110.56606946  .00074521  00000+0  80400-3 0  9997
2 43049  51.6347 341.8516 0002085 178.0732 182.0271 15.62979193246521
PROPCUBE 2 (FAUNA)      
1 43052U 17071R   22110.58870777  .00097741  00000+0  89624-3 0  9994
2 43052  51.6305 334.4460 0002733 198.1618 161.9281 15.66956256246617
CORVUS BC3              
1 43118U 18004H   22110.43669838  .00007423  00000+0  28790-3 0  9997
2 43118  97.3653 183.9203 0009103 198.7470 161.3435 15.26375272237361
MICROMAS-2A             
1 43131U 18004W   22110.45984921  .00023875  00000+0  74400-3 0  9995
2 43131  97.3772 189.7189 0007725 186.2131 173.9017 15.33226884237681
SPACEBEE-4              
1 43139U 18004AE  22110.47362846  .00041878  00000+0  10836-2 0  9996
2 43139  97.3862 193.9477 0007060 182.8076 177.3131 15.38934658237919
SPACEBEE-3              
1 43140U 18004AF  22110.19782178  .00066434  00000+0  14094-2 0  9996
2 43140  97.3912 196.6672 0006492 184.3537 175.7656 15.44802768238043
SPACEBEE-2              
1 43141U 18004AG  22110.51219220  .00084457  00000+0  16430-2 0  9997
2 43141  97.3932 198.1533 0005880 184.5015 175.6183 15.47268600238152
SPACEBEE-1              
1 43142U 18004AH  22110.48489708  .00106845  00000+0  18487-2 0  9994
2 43142  97.3943 199.3797 0005601 186.8246 173.2930 15.50543580238210
CICERO 7                
1 43143U 18004AJ  22110.48820747  .00017435  00000+0  57188-3 0  9995
2 43143  97.3750 189.4931 0006004 192.2385 167.8711 15.31659675237699
GOMX-4B                 
1 43196U 18015E   22110.60650361  .00007099  00000+0  27591-3 0  9992
2 43196  97.5249 249.5152 0016287 259.5135 100.4269 15.26250086234335
GOMX-4A                 
1 43197U 18015F   22110.64283656  .00008060  00000+0  29931-3 0  9995
2 43197  97.5229 250.2039 0016282 258.7665 158.0473 15.27714477234393
AEROCUBE 12A            
1 43556U 18046C   22110.35278122  .00019071  00000+0  53118-3 0  9996
2 43556  51.6361 106.6032 0005552 174.2426 185.8622 15.36800909210374
AEROCUBE 12B            
1 43557U 18046D   22110.48724024  .00015029  00000+0  44003-3 0  9990
2 43557  51.6370 109.6893 0006046 174.1209 185.9846 15.35417984210296
SURFSAT                 
1 43614U 18070B   22110.58522467  .00036332  00000+0  63376-3 0  9993
2 43614  93.0283  74.2600 0007925 228.9129 131.1448 15.50561296202084
CP7 (DAVE)              
1 43615U 18070C   22110.42794100  .00033691  00000+0  60432-3 0  9997
2 43615  93.0289  74.0833 0008145 232.3736 127.6785 15.49776421202030
ELFIN-B                 
1 43616U 18070D   22110.36740593  .00067295  00000+0  88378-3 0  9994
2 43616  93.0201  74.9199 0007383 209.6611 150.4236 15.58267592202287
ELFIN-A                 
1 43617U 18070E   22110.56495118  .00069163  00000+0  86269-3 0  9990
2 43617  93.0275  76.2293 0007292 198.1092 161.9915 15.59631915202357
CUBEBEL-1 (BSUSAT-1)    
1 43666U 18083E   22110.50710719  .00008973  00000+0  39457-3 0  9998
2 43666  97.4260 139.8796 0014243 168.7593 329.2240 15.22022335192662
CICERO 10               
1 43690U 18088A   22110.40277316  .00008433  00000+0  34771-3 0  9995
2 43690  85.0390 354.8497 0014075  12.4924 347.6664 15.23813703190917
IRVINE01                
1 43693U 18088D   22110.40908566  .00031463  00000+0  96213-3 0  9994
2 43693  85.0322 350.0807 0011828 338.1571  21.9171 15.33643181191319
PROXIMA I               
1 43694U 18088E   22110.16064205  .00007753  00000+0  30428-3 0  9992
2 43694  85.0323 351.8473 0016431 337.6423  22.4103 15.25423034191083
